COMMENT,ORIGINATOR,NORAD_CAT_ID,OBJECT_NAME,OBJECT_TYPE,CLASSIFICATION_TYPE,INTLDES,EPOCH,EPOCH_MICROSECONDS,MEAN_MOTION,ECCENTRICITY,INCLINATION,RA_OF_ASC_NODE,ARG_OF_PERICENTER,MEAN_ANOMALY,EPHEMERIS_TYPE,ELEMENT_SET_NO,REV_AT_EPOCH,BSTAR,MEAN_MOTION_DOT,MEAN_MOTION_DDOT,FILE,TLE_LINE0,TLE_LINE1,TLE_LINE2,OBJECT_ID,OBJECT_NUMBER,SEMIMAJOR_AXIS,PERIOD,APOGEE,PERIGEE,DECAYED
GENERATED VIA SPACETRACK.ORG API,18 SPCS,57309,STARLINK-30163,PAYLOAD,U,23096V,2024-07-04 15:29:27,640320,15.02543408,0.0001534,43.0031,313.9261,263.2946,96.7722,0,999,5446,0.00020885,0.00002619,0,4360654,0 STARLINK-30163,1 57309U 23096V   24186.64545880  .00002619  00000-0  20885-3 0  9999,2 57309  43.0031 313.9261 0001534 263.2946  96.7722 15.02543408 54461,2023-096V,57309,6937.194,95.837,560.123,557.995,1
GENERATED VIA SPACETRACK.ORG API,18 SPCS,57309,STARLINK-30163,PAYLOAD,U,23096V,2024-07-04 15:29:27,640320,15.02543408,0.0001534,43.0031,313.9261,263.2946,96.7722,0,999,5449,0.00020885,0.00002619,0,4361047,0 STARLINK-30163,1 57309U 23096V   24186.64545880  .00002619  00000-0  20885-3 0  9999,2 57309  43.0031 313.9261 0001534 263.2946  96.7722 15.02543408 54494,2023-096V,57309,6937.194,95.837,560.123,557.995,1
GENERATED VIA SPACETRACK.ORG API,18 SPCS,57309,STARLINK-30163,PAYLOAD,U,23096V,2024-07-05 07:26:44,268576,15.02545835,0.0001519,43.0022,310.3156,266.9356,93.1312,0,999,5459,0.00022825,0.00002882,0,4362273,0 STARLINK-30163,1 57309U 23096V   24187.31023459  .00002882  00000-0  22825-3 0  9995,2 57309  43.0022 310.3156 0001519 266.9356  93.1312 15.02545835 54599,2023-096V,57309,6937.186,95.837,560.105,557.998,1
GENERATED VIA SPACETRACK.ORG API,18 SPCS,57309,STARLINK-30163,PAYLOAD,U,23096V,2024-07-05 15:25:23,7360,15.02535559,0.0001545,43.0022,308.509,265.6127,94.4539,0,999,5461,0.00000043444,-0.00000198,0,4362567,0 STARLINK-30163,1 57309U 23096V   24187.64262740 -.00000198  00000-0  43444-6 0  9991,2 57309  43.0022 308.5090 0001545 265.6127  94.4539 15.02535559 54616,2023-096V,57309,6937.218,95.838,560.155,558.011,1
GENERATED VIA SPACETRACK.ORG API,18 SPCS,57309,STARLINK-30163,PAYLOAD,U,23096V,2024-07-05 15:25:23,7360,15.02535559,0.0001545,43.0022,308.509,265.6127,94.4539,0,999,5464,0.00000043444,-0.00000198,0,4362844,0 STARLINK-30163,1 57309U 23096V   24187.64262740 -.00000198  00000-0  43444-6 0  9991,2 57309  43.0022 308.5090 0001545 265.6127  94.4539 15.02535559 54649,2023-096V,57309,6937.218,95.838,560.155,558.011,1
GENERATED VIA SPACETRACK.ORG API,18 SPCS,57309,STARLINK-30163,PAYLOAD,U,23096V,2024-07-06 12:09:51,444288,15.02526904,0.0001683,43.003,303.8136,261.1084,98.9567,0,999,5474,0.00030053,0.00003857,0,4363717,0 STARLINK-30163,1 57309U 23096V   24188.50684542  .00003857  00000-0  30053-3 0  9998,2 57309  43.0030 303.8136 0001683 261.1084  98.9567 15.02526904 54748,2023-096V,57309,6937.245,95.839,560.277,557.942,1
GENERATED VIA SPACETRACK.ORG API,18 SPCS,57309,STARLINK-30163,PAYLOAD,U,23096V,2024-07-06 12:09:51,444288,15.02526904,0.0001683,43.003,303.8136,261.1084,98.9567,0,999,5477,0.00030053,0.00003857,0,4364218,0 STARLINK-30163,1 57309U 23096V   24188.50684542  .00003857  00000-0  30053-3 0  9998,2 57309  43.0030 303.8136 0001683 261.1084  98.9567 15.02526904 54771,2023-096V,57309,6937.245,95.839,560.277,557.942,1
GENERATED VIA SPACETRACK.ORG API,18 SPCS,57309,STARLINK-30163,PAYLOAD,U,23096V,2024-07-07 00:55:40,537632,15.02536572,0.0001563,43.0032,300.9233,263.2862,96.7802,0,999,5482,0.000074417,0.00000802,0,4365124,0 STARLINK-30163,1 57309U 23096V   24189.03866363  .00000802  00000-0  74417-4 0  9990,2 57309  43.0032 300.9233 0001563 263.2862  96.7802 15.02536572 54829,2023-096V,57309,6937.215,95.838,560.164,557.995,1
GENERATED VIA SPACETRACK.ORG API,18 SPCS,57309,STARLINK-30163,PAYLOAD,U,23096V,2024-07-07 07:18:35,311104,15.02535408,0.0001676,43.0025,299.4775,262.1693,97.8959,0,999,5489,0.00013504,0.00001621,0,4365919,0 STARLINK-30163,1 57309U 23096V   24189.30457536  .00001621  00000-0  13504-3 0  9997,2 57309  43.0025 299.4775 0001676 262.1693  97.8959 15.02535408 54898,2023-096V,57309,6937.218,95.838,560.246,557.921,1
GENERATED VIA SPACETRACK.ORG API,18 SPCS,57309,STARLINK-30163,PAYLOAD,U,23096V,2024-07-08 13:37:25,391136,15.02532396,0.0001557,43.0007,292.6139,267.6315,92.4349,0,999,5505,0.000016896,0.00000025,0,4367332,0 STARLINK-30163,1 57309U 23096V   24190.56765499  .00000025  00000-0  16896-4 0  9992,2 57309  43.0007 292.6139 0001557 267.6315  92.4349 15.02532396 55052,2023-096V,57309,6937.228,95.838,560.173,558.013,1
GENERATED VIA SPACETRACK.ORG API,18 SPCS,57309,STARLINK-30163,PAYLOAD,U,23096V,2024-07-08 13:37:25,391136,15.02532396,0.0001557,43.0007,292.6139,267.6315,92.4349,0,999,5508,0.000016896,0.00000025,0,4367778,0 STARLINK-30163,1 57309U 23096V   24190.56765499  .00000025  00000-0  16896-4 0  9992,2 57309  43.0007 292.6139 0001557 267.6315  92.4349 15.02532396 55085,2023-096V,57309,6937.228,95.838,560.173,558.013,1
GENERATED VIA SPACETRACK.ORG API,18 SPCS,57309,STARLINK-30163,PAYLOAD,U,23096V,2024-07-09 13:33:20,686464,15.02537083,0.0001348,43.0024,287.1965,267.9123,92.1565,0,999,5523,0.00002718,0.00000164,0,4369589,0 STARLINK-30163,1 57309U 23096V   24191.56482276  .00000164  00000-0  27180-4 0  9994,2 57309  43.0024 287.1965 0001348 267.9123  92.1565 15.02537083 55230,2023-096V,57309,6937.213,95.838,560.013,558.143,1
GENERATED VIA SPACETRACK.ORG API,18 SPCS,57309,STARLINK-30163,PAYLOAD,U,23096V,2024-07-09 16:44:48,61536,15.02538509,0.0001343,43.0037,286.4752,263.8696,96.1993,0,999,5522,-0.000016832,-0.00000431,0,4369775,0 STARLINK-30163,1 57309U 23096V   24191.69777849 -.00000431  00000-0 -16832-4 0  9992,2 57309  43.0037 286.4752 0001343 263.8696  96.1993 15.02538509 55227,2023-096V,57309,6937.209,95.838,560.005,558.142,1
GENERATED VIA SPACETRACK.ORG API,18 SPCS,57309,STARLINK-30163,PAYLOAD,U,23096V,2024-07-09 16:44:48,61536,15.02538509,0.0001343,43.0037,286.4752,263.8696,96.1993,0,999,5525,-0.000016832,-0.00000431,0,4370123,0 STARLINK-30163,1 57309U 23096V   24191.69777849 -.00000431  00000-0 -16832-4 0  9992,2 57309  43.0037 286.4752 0001343 263.8696  96.1993 15.02538509 55250,2023-096V,57309,6937.209,95.838,560.005,558.142,1
GENERATED VIA SPACETRACK.ORG API,18 SPCS,57309,STARLINK-30163,PAYLOAD,U,23096V,2024-07-10 13:29:16,229760,15.02530752,0.0001269,43.0039,281.7795,267.8978,92.1719,0,999,5538,0.00012707,0.00001513,0,4371425,0 STARLINK-30163,1 57309U 23096V   24192.56199340  .00001513  00000-0  12707-3 0  9999,2 57309  43.0039 281.7795 0001269 267.8978  92.1719 15.02530752 55389,2023-096V,57309,6937.233,95.838,559.978,558.217,1
GENERATED VIA SPACETRACK.ORG API,18 SPCS,57309,STARLINK-30163,PAYLOAD,U,23096V,2024-07-10 13:29:16,229760,15.02530752,0.0001269,43.0039,281.7795,267.8978,92.1719,0,999,5535,0.00012707,0.00001513,0,4372253,0 STARLINK-30163,1 57309U 23096V   24192.56199340  .00001513  00000-0  12707-3 0  9999,2 57309  43.0039 281.7795 0001269 267.8978  92.1719 15.02530752 55356,2023-096V,57309,6937.233,95.838,559.978,558.217,1
GENERATED VIA SPACETRACK.ORG API,18 SPCS,57309,STARLINK-30163,PAYLOAD,U,23096V,2024-07-11 10:13:43,784544,15.02538268,0.0001285,43.004,277.0834,268.6947,91.3748,0,999,5551,0.0001157,0.0000136,0,4372493,0 STARLINK-30163,1 57309U 23096V   24193.42620121  .00001360  00000-0  11570-3 0  9998,2 57309  43.0040 277.0834 0001285 268.6947  91.3748 15.02538268 55514,2023-096V,57309,6937.210,95.838,559.966,558.183,1
GENERATED VIA SPACETRACK.ORG API,18 SPCS,57309,STARLINK-30163,PAYLOAD,U,23096V,2024-07-11 15:00:54,743040,15.02539093,0.000129,43.0034,275.9995,269.4785,90.591,0,999,5551,0.00013714,0.00001649,0,4372723,0 STARLINK-30163,1 57309U 23096V   24193.62563360  .00001649  00000-0  13714-3 0  9993,2 57309  43.0034 275.9995 0001290 269.4785  90.5910 15.02539093 55516,2023-096V,57309,6937.207,95.838,559.967,558.177,1
GENERATED VIA SPACETRACK.ORG API,18 SPCS,57309,STARLINK-30163,PAYLOAD,U,23096V,2024-07-11 15:00:54,743040,15.02539093,0.000129,43.0034,275.9995,269.4785,90.591,0,999,5554,0.00013714,0.00001649,0,4373307,0 STARLINK-30163,1 57309U 23096V   24193.62563360  .00001649  00000-0  13714-3 0  9993,2 57309  43.0034 275.9995 0001290 269.4785  90.5910 15.02539093 55549,2023-096V,57309,6937.207,95.838,559.967,558.177,1
GENERATED VIA SPACETRACK.ORG API,18 SPCS,57309,STARLINK-30163,PAYLOAD,U,23096V,2024-07-12 11:45:21,76128,15.02561768,0.000148,43.0018,271.3035,270.0977,89.9695,0,999,5564,0.00049413,0.00006482,0,4374248,0 STARLINK-30163,1 57309U 23096V   24194.48982727  .00006482  00000-0  49413-3 0  9995,2 57309  43.0018 271.3035 0001480 270.0977  89.9695 15.02561768 55645,2023-096V,57309,6937.137,95.836,560.029,557.976,1
GENERATED VIA SPACETRACK.ORG API,18 SPCS,57309,STARLINK-30163,PAYLOAD,U,23096V,2024-07-12 13:21:04,556736,15.02567154,0.0001409,43.0018,270.9429,274.8468,85.2213,0,999,5568,0.00058862,0.00007763,0,4374714,0 STARLINK-30163,1 57309U 23096V   24194.55630274  .00007763  00000-0  58862-3 0  9991,2 57309  43.0018 270.9429 0001409 274.8468  85.2213 15.02567154 55689,2023-096V,57309,6937.121,95.836,559.963,558.008,1
GENERATED VIA SPACETRACK.ORG API,18 SPCS,57309,STARLINK-30163,PAYLOAD,U,23096V,2024-07-12 21:19:43,286016,15.02550973,0.0000902,43.0007,269.1349,276.293,83.7809,0,999,5573,0.00012814,0.00001529,0,4375345,0 STARLINK-30163,1 57309U 23096V   24194.88869544  .00001529  00000-0  12814-3 0  9992,2 57309  43.0007 269.1349 0000902 276.2930  83.7809 15.02550973 55736,2023-096V,57309,6937.170,95.837,559.661,558.410,1
GENERATED VIA SPACETRACK.ORG API,18 SPCS,57309,STARLINK-30163,PAYLOAD,U,23096V,2024-07-13 05:18:21,715488,15.02548139,0.0000771,42.9974,267.3303,285.0491,75.0266,0,999,5575,0.00004323,0.00000381,0,4375701,0 STARLINK-30163,1 57309U 23096V   24195.22108467  .00000381  00000-0  43230-4 0  9993,2 57309  42.9974 267.3303 0000771 285.0491  75.0266 15.02548139 55755,2023-096V,57309,6937.179,95.837,559.579,558.509,1
